[{
    "OBJECT_NAME": "COSMOS 2251 DEB",
    "OBJECT_ID": "1993-036EU",
    "EPOCH": "2025-11-21T21:12:04.186656",
    "MEAN_MOTION": 14.97564643,
    "ECCENTRICITY": 0.0005398,
    "INCLINATION": 74.0061,
    "RA_OF_ASC_NODE": 123.0012,
    "ARG_OF_PERICENTER": 163.5854,
    "MEAN_ANOMALY": 196.5508,
    "EPHEMERIS_TYPE": 0,
    "CLASSIFICATION_TYPE": "U",
    "NORAD_CAT_ID": 33939,
    "ELEMENT_SET_NO": 999,
    "REV_AT_EPOCH": 88440,
    "BSTAR": 0.0037117,
    "MEAN_MOTION_DOT": 0.00043597,
    "MEAN_MOTION_DDOT": 0
},{
    "OBJECT_NAME": "COSMOS 2251 DEB",
    "OBJECT_ID": "1993-036EV",
    "EPOCH": "2025-11-22T01:41:37.888224",
    "MEAN_MOTION": 14.58529942,
    "ECCENTRICITY": 0.0012141,
    "INCLINATION": 74.0389,
    "RA_OF_ASC_NODE": 182.8415,
    "ARG_OF_PERICENTER": 262.1134,
    "MEAN_ANOMALY": 251.3075,
    "EPHEMERIS_TYPE": 0,
    "CLASSIFICATION_TYPE": "U",
    "NORAD_CAT_ID": 33940,
    "ELEMENT_SET_NO": 999,
    "REV_AT_EPOCH": 88292,
    "BSTAR": 0.0008392,
    "MEAN_MOTION_DOT": 3.877e-5,
    "MEAN_MOTION_DDOT": 0
},{
    "OBJECT_NAME": "COSMOS 2251 DEB",
    "OBJECT_ID": "1993-036EX",
    "EPOCH": "2025-11-21T23:54:21.843360",
    "MEAN_MOTION": 14.37943039,
    "ECCENTRICITY": 0.0019387,
    "INCLINATION": 74.0357,
    "RA_OF_ASC_NODE": 313.0321,
    "ARG_OF_PERICENTER": 41.8881,
    "MEAN_ANOMALY": 20.7411,
    "EPHEMERIS_TYPE": 0,
    "CLASSIFICATION_TYPE": "U",
    "NORAD_CAT_ID": 33942,
    "ELEMENT_SET_NO": 999,
    "REV_AT_EPOCH": 87836,
    "BSTAR": 0.00023646,
    "MEAN_MOTION_DOT": 6.9e-6,
    "MEAN_MOTION_DDOT": 0
},{
    "OBJECT_NAME": "COSMOS 2251 DEB",
    "OBJECT_ID": "1993-036EZ",
    "EPOCH": "2025-11-22T01:47:29.918976",
    "MEAN_MOTION": 14.37287564,
    "ECCENTRICITY": 0.0111889,
    "INCLINATION": 74.0403,
    "RA_OF_ASC_NODE": 346.9454,
    "ARG_OF_PERICENTER": 92.0969,
    "MEAN_ANOMALY": 300.0945,
    "EPHEMERIS_TYPE": 0,
    "CLASSIFICATION_TYPE": "U",
    "NORAD_CAT_ID": 33944,
    "ELEMENT_SET_NO": 999,
    "REV_AT_EPOCH": 87731,
    "BSTAR": 0.0002182,
    "MEAN_MOTION_DOT": 6.73e-6,
    "MEAN_MOTION_DDOT": 0
},{
    "OBJECT_NAME": "COSMOS 2251 DEB",
    "OBJECT_ID": "1993-036FA",
    "EPOCH": "2025-11-21T12:16:36.634368",
    "MEAN_MOTION": 14.34577031,
    "ECCENTRICITY": 0.002136,
    "INCLINATION": 74.0298,
    "RA_OF_ASC_NODE": 345.1665,
    "ARG_OF_PERICENTER": 78.6425,
    "MEAN_ANOMALY": 281.7125,
    "EPHEMERIS_TYPE": 0,
    "CLASSIFICATION_TYPE": "U",
    "NORAD_CAT_ID": 33945,
    "ELEMENT_SET_NO": 999,
    "REV_AT_EPOCH": 87711,
    "BSTAR": 0.00013083,
    "MEAN_MOTION_DOT": 3.44e-6,
    "MEAN_MOTION_DDOT": 0
},{
    "OBJECT_NAME": "COSMOS 2251 DEB",
    "OBJECT_ID": "1993-036FD",
    "EPOCH": "2025-11-22T02:43:14.589984",
    "MEAN_MOTION": 14.35595416,
    "ECCENTRICITY": 0.0022023,
    "INCLINATION": 74.0355,
    "RA_OF_ASC_NODE": 342.9801,
    "ARG_OF_PERICENTER": 65.4431,
    "MEAN_ANOMALY": 294.9014,
    "EPHEMERIS_TYPE": 0,
    "CLASSIFICATION_TYPE": "U",
    "NORAD_CAT_ID": 33948,
    "ELEMENT_SET_NO": 999,
    "REV_AT_EPOCH": 87727,
    "BSTAR": 0.00016713,
    "MEAN_MOTION_DOT": 4.57e-6,
    "MEAN_MOTION_DDOT": 0
},{
    "OBJECT_NAME": "COSMOS 2251 DEB",
    "OBJECT_ID": "1993-036FE",
    "EPOCH": "2025-11-22T00:47:23.937216",
    "MEAN_MOTION": 14.3966574,
    "ECCENTRICITY": 0.0017596,
    "INCLINATION": 74.024,
    "RA_OF_ASC_NODE": 292.0004,
    "ARG_OF_PERICENTER": 37.4296,
    "MEAN_ANOMALY": 30.985,
    "EPHEMERIS_TYPE": 0,
    "CLASSIFICATION_TYPE": "U",
    "NORAD_CAT_ID": 33971,
    "ELEMENT_SET_NO": 999,
    "REV_AT_EPOCH": 87841,
    "BSTAR": 0.0003273,
    "MEAN_MOTION_DOT": 9.99e-6,
    "MEAN_MOTION_DDOT": 0
},{
    "OBJECT_NAME": "COSMOS 2251 DEB",
    "OBJECT_ID": "1993-036FF",
    "EPOCH": "2025-11-20T04:44:49.367040",
    "MEAN_MOTION": 14.3599609,
    "ECCENTRICITY": 0.01223515,
    "INCLINATION": 73.9958,
    "RA_OF_ASC_NODE": 232.1666,
    "ARG_OF_PERICENTER": 45.0676,
    "MEAN_ANOMALY": 104.84,
    "EPHEMERIS_TYPE": 0,
    "CLASSIFICATION_TYPE": "U",
    "NORAD_CAT_ID": 33972,
    "ELEMENT_SET_NO": 999,
    "REV_AT_EPOCH": 86750,
    "BSTAR": 0.0010453474,
    "MEAN_MOTION_DOT": 3.282e-5,
    "MEAN_MOTION_DDOT": 0
},{
    "OBJECT_NAME": "COSMOS 2251 DEB",
    "OBJECT_ID": "1993-036FG",
    "EPOCH": "2025-11-21T23:25:57.988704",
    "MEAN_MOTION": 14.45358731,
    "ECCENTRICITY": 0.0046756,
    "INCLINATION": 74.0061,
    "RA_OF_ASC_NODE": 141.6597,
    "ARG_OF_PERICENTER": 324.1294,
    "MEAN_ANOMALY": 155.8729,
    "EPHEMERIS_TYPE": 0,
    "CLASSIFICATION_TYPE": "U",
    "NORAD_CAT_ID": 33973,
    "ELEMENT_SET_NO": 999,
    "REV_AT_EPOCH": 88300,
    "BSTAR": 0.00012933,
    "MEAN_MOTION_DOT": 4.33e-6,
    "MEAN_MOTION_DDOT": 0
},{
    "OBJECT_NAME": "COSMOS 2251 DEB",
    "OBJECT_ID": "1993-036FJ",
    "EPOCH": "2025-11-21T20:53:12.718176",
    "MEAN_MOTION": 14.00456805,
    "ECCENTRICITY": 0.0191414,
    "INCLINATION": 73.7998,
    "RA_OF_ASC_NODE": 121.1361,
    "ARG_OF_PERICENTER": 257.2355,
    "MEAN_ANOMALY": 100.7326,
    "EPHEMERIS_TYPE": 0,
    "CLASSIFICATION_TYPE": "U",
    "NORAD_CAT_ID": 33975,
    "ELEMENT_SET_NO": 999,
    "REV_AT_EPOCH": 85537,
    "BSTAR": 0.00060462,
    "MEAN_MOTION_DOT": 1.024e-5,
    "MEAN_MOTION_DDOT": 0
},{
    "OBJECT_NAME": "COSMOS 2251 DEB",
    "OBJECT_ID": "1993-036FP",
    "EPOCH": "2025-11-22T01:39:36.153216",
    "MEAN_MOTION": 14.58431899,
    "ECCENTRICITY": 0.0029531,
    "INCLINATION": 74.02,
    "RA_OF_ASC_NODE": 98.7838,
    "ARG_OF_PERICENTER": 246.6337,
    "MEAN_ANOMALY": 234.6816,
    "EPHEMERIS_TYPE": 0,
    "CLASSIFICATION_TYPE": "U",
    "NORAD_CAT_ID": 33980,
    "ELEMENT_SET_NO": 999,
    "REV_AT_EPOCH": 88493,
    "BSTAR": 0.00091348,
    "MEAN_MOTION_DOT": 4.234e-5,
    "MEAN_MOTION_DDOT": 0
},{
    "OBJECT_NAME": "COSMOS 2251 DEB",
    "OBJECT_ID": "1993-036FR",
    "EPOCH": "2025-11-21T21:55:28.052832",
    "MEAN_MOTION": 14.60109629,
    "ECCENTRICITY": 0.0074771,
    "INCLINATION": 74.0722,
    "RA_OF_ASC_NODE": 39.6074,
    "ARG_OF_PERICENTER": 90.3434,
    "MEAN_ANOMALY": 27.6292,
    "EPHEMERIS_TYPE": 0,
    "CLASSIFICATION_TYPE": "U",
    "NORAD_CAT_ID": 33982,
    "ELEMENT_SET_NO": 999,
    "REV_AT_EPOCH": 88855,
    "BSTAR": 0.00037433,
    "MEAN_MOTION_DOT": 1.842e-5,
    "MEAN_MOTION_DDOT": 0
},{
    "OBJECT_NAME": "COSMOS 2251 DEB",
    "OBJECT_ID": "1993-036FS",
    "EPOCH": "2025-11-22T01:43:39.396864",
    "MEAN_MOTION": 14.50558054,
    "ECCENTRICITY": 0.0021446,
    "INCLINATION": 74.0494,
    "RA_OF_ASC_NODE": 185.8592,
    "ARG_OF_PERICENTER": 291.1543,
    "MEAN_ANOMALY": 221.073,
    "EPHEMERIS_TYPE": 0,
    "CLASSIFICATION_TYPE": "U",
    "NORAD_CAT_ID": 33983,
    "ELEMENT_SET_NO": 999,
    "REV_AT_EPOCH": 88329,
    "BSTAR": 0.0004359,
    "MEAN_MOTION_DOT": 1.685e-5,
    "MEAN_MOTION_DDOT": 0
},{
    "OBJECT_NAME": "COSMOS 2251 DEB",
    "OBJECT_ID": "1993-036FT",
    "EPOCH": "2025-11-21T15:39:51.481152",
    "MEAN_MOTION": 14.66103876,
    "ECCENTRICITY": 0.0024289,
    "INCLINATION": 74.0106,
    "RA_OF_ASC_NODE": 27.8113,
    "ARG_OF_PERICENTER": 229.7705,
    "MEAN_ANOMALY": 254.9926,
    "EPHEMERIS_TYPE": 0,
    "CLASSIFICATION_TYPE": "U",
    "NORAD_CAT_ID": 33984,
    "ELEMENT_SET_NO": 999,
    "REV_AT_EPOCH": 88757,
    "BSTAR": 0.00086543,
    "MEAN_MOTION_DOT": 4.746e-5,
    "MEAN_MOTION_DDOT": 0
}]
