COSMOS 2251 DEB         
1 33939U 93036EU  25325.88338179  .00043597  00000+0  37117-2 0  9990
2 33939  74.0061 123.0012 0005398 163.5854 196.5508 14.97564643884400
COSMOS 2251 DEB         
1 33940U 93036EV  25326.07057741  .00003877  00000+0  83920-3 0  9998
2 33940  74.0389 182.8415 0012141 262.1134 251.3075 14.58529942882920
COSMOS 2251 DEB         
1 33942U 93036EX  25325.99608615  .00000690  00000+0  23646-3 0  9991
2 33942  74.0357 313.0321 0019387  41.8881  20.7411 14.37943039878360
COSMOS 2251 DEB         
1 33944U 93036EZ  25326.07465184  .00000673  00000+0  21820-3 0  9998
2 33944  74.0403 346.9454 0111889  92.0969 300.0945 14.37287564877315
COSMOS 2251 DEB         
1 33945U 93036FA  25325.51153512  .00000344  00000+0  13083-3 0  9993
2 33945  74.0298 345.1665 0021360  78.6425 281.7125 14.34577031877115
COSMOS 2251 DEB         
1 33948U 93036FD  25326.11336331  .00000457  00000+0  16713-3 0  9993
2 33948  74.0355 342.9801 0022023  65.4431 294.9014 14.35595416877275
COSMOS 2251 DEB         
1 33971U 93036FE  25326.03291594  .00000999  00000+0  32730-3 0  9999
2 33971  74.0240 292.0004 0017596  37.4296  30.9850 14.39665740878416
COSMOS 2251 DEB         
1 33972U 93036FF  25324.19779360  .00003282  00000+0  10453-2 0  9992
2 33972  73.9958 232.1666 0122351  45.0676 104.8400 14.35996090867504
COSMOS 2251 DEB         
1 33973U 93036FG  25325.97636561  .00000433  00000+0  12933-3 0  9996
2 33973  74.0061 141.6597 0046756 324.1294 155.8729 14.45358731883008
COSMOS 2251 DEB         
1 33975U 93036FJ  25325.87028609  .00001024  00000+0  60462-3 0  9992
2 33975  73.7998 121.1361 0191414 257.2355 100.7326 14.00456805855376
COSMOS 2251 DEB         
1 33980U 93036FP  25326.06916844  .00004234  00000+0  91348-3 0  9990
2 33980  74.0200  98.7838 0029531 246.6337 234.6816 14.58431899884936
COSMOS 2251 DEB         
1 33982U 93036FR  25325.91351913  .00001842  00000+0  37433-3 0  9992
2 33982  74.0722  39.6074 0074771  90.3434  27.6292 14.60109629888557
COSMOS 2251 DEB         
1 33983U 93036FS  25326.07198376  .00001685  00000+0  43590-3 0  9999
2 33983  74.0494 185.8592 0021446 291.1543 221.0730 14.50558054883298
COSMOS 2251 DEB         
1 33984U 93036FT  25325.65267918  .00004746  00000+0  86543-3 0  9998
2 33984  74.0106  27.8113 0024289 229.7705 254.9926 14.66103876887570
